[{"OBJECT_NAME":"STARLINK-34896","OBJECT_ID":"2025-247Z","EPOCH":"2026-02-10T01:11:36.417984","MEAN_MOTION":15.30188047,"ECCENTRICITY":0.0001211,"INCLINATION":53.1599,"RA_OF_ASC_NODE":319.6966,"ARG_OF_PERICENTER":85.0571,"MEAN_ANOMALY":275.0567,"EPHEMERIS_TYPE":0,"CLASSIFICATION_TYPE":"U","NORAD_CAT_ID":66288,"ELEMENT_SET_NO":999,"REV_AT_EPOCH":1680,"BSTAR":0.00027212,"MEAN_MOTION_DOT":7.706e-5,"MEAN_MOTION_DDOT":0},{"OBJECT_NAME":"STARLINK-35802","OBJECT_ID":"2025-247AA","EPOCH":"2026-02-10T01:04:01.159104","MEAN_MOTION":15.30202494,"ECCENTRICITY":0.0001366,"INCLINATION":53.1605,"RA_OF_ASC_NODE":319.6634,"ARG_OF_PERICENTER":103.0157,"MEAN_ANOMALY":257.0997,"EPHEMERIS_TYPE":0,"CLASSIFICATION_TYPE":"U","NORAD_CAT_ID":66289,"ELEMENT_SET_NO":999,"REV_AT_EPOCH":1680,"BSTAR":0.00090511,"MEAN_MOTION_DOT":0.00026546,"MEAN_MOTION_DDOT":0},{"OBJECT_NAME":"STARLINK-35799","OBJECT_ID":"2025-247AB","EPOCH":"2026-02-10T04:04:31.405152","MEAN_MOTION":15.30187509,"ECCENTRICITY":0.0001173,"INCLINATION":53.1608,"RA_OF_ASC_NODE":319.0239,"ARG_OF_PERICENTER":70.7896,"MEAN_ANOMALY":289.3231,"EPHEMERIS_TYPE":0,"CLASSIFICATION_TYPE":"U","NORAD_CAT_ID":66290,"ELEMENT_SET_NO":999,"REV_AT_EPOCH":1687,"BSTAR":0.00096258,"MEAN_MOTION_DOT":0.00028247,"MEAN_MOTION_DDOT":0},{"OBJECT_NAME":"STARLINK-35800","OBJECT_ID":"2025-247AC","EPOCH":"2026-02-10T03:50:50.781408","MEAN_MOTION":15.30192826,"ECCENTRICITY":0.000122,"INCLINATION":53.1614,"RA_OF_ASC_NODE":318.9631,"ARG_OF_PERICENTER":78.5181,"MEAN_ANOMALY":281.5957,"EPHEMERIS_TYPE":0,"CLASSIFICATION_TYPE":"U","NORAD_CAT_ID":66291,"ELEMENT_SET_NO":999,"REV_AT_EPOCH":1687,"BSTAR":0.0011649,"MEAN_MOTION_DOT":0.00034294,"MEAN_MOTION_DDOT":0},{"OBJECT_NAME":"STARLINK-35798","OBJECT_ID":"2025-247AD","EPOCH":"2026-02-10T03:56:55.665024","MEAN_MOTION":15.30188885,"ECCENTRICITY":0.0001348,"INCLINATION":53.161,"RA_OF_ASC_NODE":318.991,"ARG_OF_PERICENTER":64.4231,"MEAN_ANOMALY":295.6909,"EPHEMERIS_TYPE":0,"CLASSIFICATION_TYPE":"U","NORAD_CAT_ID":66292,"ELEMENT_SET_NO":999,"REV_AT_EPOCH":1681,"BSTAR":0.0010837,"MEAN_MOTION_DOT":0.00031864,"MEAN_MOTION_DDOT":0},{"OBJECT_NAME":"STARLINK-35442","OBJECT_ID":"2025-253A","EPOCH":"2026-02-09T07:56:43.519200","MEAN_MOTION":15.27628452,"ECCENTRICITY":0.0002108,"INCLINATION":43.0029,"RA_OF_ASC_NODE":12.99,"ARG_OF_PERICENTER":245.6892,"MEAN_ANOMALY":114.3739,"EPHEMERIS_TYPE":0,"CLASSIFICATION_TYPE":"U","NORAD_CAT_ID":66319,"ELEMENT_SET_NO":999,"REV_AT_EPOCH":1590,"BSTAR":0.0012356414,"MEAN_MOTION_DOT":0.00033948,"MEAN_MOTION_DDOT":0},{"OBJECT_NAME":"STARLINK-34616","OBJECT_ID":"2025-253B","EPOCH":"2026-02-09T08:13:11.103168","MEAN_MOTION":15.27614722,"ECCENTRICITY":0.00027576,"INCLINATION":42.9983,"RA_OF_ASC_NODE":12.2117,"ARG_OF_PERICENTER":250.7159,"MEAN_ANOMALY":109.3395,"EPHEMERIS_TYPE":0,"CLASSIFICATION_TYPE":"U","NORAD_CAT_ID":66320,"ELEMENT_SET_NO":999,"REV_AT_EPOCH":1599,"BSTAR":0.0018686883,"MEAN_MOTION_DOT":0.00051578,"MEAN_MOTION_DDOT":0},{"OBJECT_NAME":"STARLINK-34615","OBJECT_ID":"2025-253C","EPOCH":"2026-02-09T07:16:02.518752","MEAN_MOTION":15.27604695,"ECCENTRICITY":6.34e-5,"INCLINATION":43.0012,"RA_OF_ASC_NODE":12.7497,"ARG_OF_PERICENTER":222.7457,"MEAN_ANOMALY":137.3346,"EPHEMERIS_TYPE":0,"CLASSIFICATION_TYPE":"U","NORAD_CAT_ID":66321,"ELEMENT_SET_NO":999,"REV_AT_EPOCH":1590,"BSTAR":0.0012417,"MEAN_MOTION_DOT":0.00034091,"MEAN_MOTION_DDOT":0},{"OBJECT_NAME":"STARLINK-35292","OBJECT_ID":"2025-253D","EPOCH":"2026-02-09T22:40:57.028800","MEAN_MOTION":15.27616496,"ECCENTRICITY":0.00015431,"INCLINATION":43.0024,"RA_OF_ASC_NODE":8.9993,"ARG_OF_PERICENTER":268.8456,"MEAN_ANOMALY":91.2219,"EPHEMERIS_TYPE":0,"CLASSIFICATION_TYPE":"U","NORAD_CAT_ID":66322,"ELEMENT_SET_NO":999,"REV_AT_EPOCH":1600,"BSTAR":0.0013267708,"MEAN_MOTION_DOT":0.00036469,"MEAN_MOTION_DDOT":0},{"OBJECT_NAME":"STARLINK-35309","OBJECT_ID":"2025-253E","EPOCH":"2026-02-09T23:40:10.826688","MEAN_MOTION":15.27609196,"ECCENTRICITY":0.0001782,"INCLINATION":43.0017,"RA_OF_ASC_NODE":9.2978,"ARG_OF_PERICENTER":305.4988,"MEAN_ANOMALY":54.5698,"EPHEMERIS_TYPE":0,"CLASSIFICATION_TYPE":"U","NORAD_CAT_ID":66323,"ELEMENT_SET_NO":999,"REV_AT_EPOCH":1600,"BSTAR":-5.2487e-5,"MEAN_MOTION_DOT":-1.708e-5,"MEAN_MOTION_DDOT":0},{"OBJECT_NAME":"STARLINK-35506","OBJECT_ID":"2025-253F","EPOCH":"2026-02-09T06:44:35.088288","MEAN_MOTION":15.27597565,"ECCENTRICITY":0.0002905,"INCLINATION":42.998,"RA_OF_ASC_NODE":12.6093,"ARG_OF_PERICENTER":248.439,"MEAN_ANOMALY":111.6152,"EPHEMERIS_TYPE":0,"CLASSIFICATION_TYPE":"U","NORAD_CAT_ID":66324,"ELEMENT_SET_NO":999,"REV_AT_EPOCH":1590,"BSTAR":0.0015684,"MEAN_MOTION_DOT":0.00043176,"MEAN_MOTION_DDOT":0},{"OBJECT_NAME":"STARLINK-35504","OBJECT_ID":"2025-253G","EPOCH":"2026-02-09T06:28:08.694048","MEAN_MOTION":15.2760177,"ECCENTRICITY":0.0001663,"INCLINATION":42.9981,"RA_OF_ASC_NODE":13.3865,"ARG_OF_PERICENTER":251.2595,"MEAN_ANOMALY":108.8076,"EPHEMERIS_TYPE":0,"CLASSIFICATION_TYPE":"U","NORAD_CAT_ID":66325,"ELEMENT_SET_NO":999,"REV_AT_EPOCH":1589,"BSTAR":0.00095424,"MEAN_MOTION_DOT":0.00026107,"MEAN_MOTION_DDOT":0},{"OBJECT_NAME":"STARLINK-35479","OBJECT_ID":"2025-253H","EPOCH":"2026-02-09T07:27:08.292960","MEAN_MOTION":15.27598203,"ECCENTRICITY":0.0001456,"INCLINATION":43.0044,"RA_OF_ASC_NODE":12.8305,"ARG_OF_PERICENTER":250.9222,"MEAN_ANOMALY":109.1472,"EPHEMERIS_TYPE":0,"CLASSIFICATION_TYPE":"U","NORAD_CAT_ID":66326,"ELEMENT_SET_NO":999,"REV_AT_EPOCH":1590,"BSTAR":0.00086917,"MEAN_MOTION_DOT":0.00023746,"MEAN_MOTION_DDOT":0},{"OBJECT_NAME":"STARLINK-35507","OBJECT_ID":"2025-253J","EPOCH":"2026-02-10T00:11:24.667296","MEAN_MOTION":15.27599879,"ECCENTRICITY":0.000101,"INCLINATION":43.0002,"RA_OF_ASC_NODE":8.602,"ARG_OF_PERICENTER":206.6543,"MEAN_ANOMALY":153.4257,"EPHEMERIS_TYPE":0,"CLASSIFICATION_TYPE":"U","NORAD_CAT_ID":66327,"ELEMENT_SET_NO":999,"REV_AT_EPOCH":1601,"BSTAR":0.00083055,"MEAN_MOTION_DOT":0.00022677,"MEAN_MOTION_DDOT":0},{"OBJECT_NAME":"STARLINK-35460","OBJECT_ID":"2025-253K","EPOCH":"2026-02-09T00:00:24.944544","MEAN_MOTION":15.27604763,"ECCENTRICITY":0.00012435,"INCLINATION":42.9992,"RA_OF_ASC_NODE":14.8003,"ARG_OF_PERICENTER":244.7022,"MEAN_ANOMALY":115.3701,"EPHEMERIS_TYPE":0,"CLASSIFICATION_TYPE":"U","NORAD_CAT_ID":66328,"ELEMENT_SET_NO":999,"REV_AT_EPOCH":1585,"BSTAR":0.0013507635,"MEAN_MOTION_DOT":0.00037123,"MEAN_MOTION_DDOT":0},{"OBJECT_NAME":"STARLINK-35505","OBJECT_ID":"2025-253L","EPOCH":"2026-02-09T08:55:46.204320","MEAN_MOTION":15.27629441,"ECCENTRICITY":0.00026898,"INCLINATION":43.0051,"RA_OF_ASC_NODE":12.4353,"ARG_OF_PERICENTER":270.4757,"MEAN_ANOMALY":89.5787,"EPHEMERIS_TYPE":0,"CLASSIFICATION_TYPE":"U","NORAD_CAT_ID":66329,"ELEMENT_SET_NO":999,"REV_AT_EPOCH":1591,"BSTAR":0.0019401455,"MEAN_MOTION_DOT":0.00053599,"MEAN_MOTION_DDOT":0}]
