STARLINK-34896          
1 66288U 25247Z   26041.04972706  .00007706  00000+0  27212-3 0  9994
2 66288  53.1599 319.6966 0001211  85.0571 275.0567 15.30188047 16809
STARLINK-35802          
1 66289U 25247AA  26041.04445786  .00026546  00000+0  90511-3 0  9993
2 66289  53.1605 319.6634 0001366 103.0157 257.0997 15.30202494 16802
STARLINK-35799          
1 66290U 25247AB  26041.16980793  .00028247  00000+0  96258-3 0  9994
2 66290  53.1608 319.0239 0001173  70.7896 289.3231 15.30187509 16873
STARLINK-35800          
1 66291U 25247AC  26041.16030997  .00034294  00000+0  11649-2 0  9996
2 66291  53.1614 318.9631 0001220  78.5181 281.5957 15.30192826 16878
STARLINK-35798          
1 66292U 25247AD  26041.16453316  .00031864  00000+0  10837-2 0  9999
2 66292  53.1610 318.9910 0001348  64.4231 295.6909 15.30188885 16813
STARLINK-35442          
1 66319U 25253A   26040.33105925  .00033948  00000+0  12356-2 0  9997
2 66319  43.0029  12.9900 0002108 245.6892 114.3739 15.27628452 15908
STARLINK-34616          
1 66320U 25253B   26040.34248962  .00051578  00000+0  18687-2 0  9991
2 66320  42.9983  12.2117 0002757 250.7159 109.3395 15.27614722 15999
STARLINK-34615          
1 66321U 25253C   26040.30280693  .00034091  00000+0  12417-2 0  9991
2 66321  43.0012  12.7497 0000634 222.7457 137.3346 15.27604695 15909
STARLINK-35292          
1 66322U 25253D   26040.94510450  .00036469  00000+0  13268-2 0  9995
2 66322  43.0024   8.9993 0001543 268.8456  91.2219 15.27616496 16002
STARLINK-35309          
1 66323U 25253E   26040.98623642 -.00001708  00000+0 -52487-4 0  9996
2 66323  43.0017   9.2978 0001782 305.4988  54.5698 15.27609196 16007
STARLINK-35506          
1 66324U 25253F   26040.28096167  .00043176  00000+0  15684-2 0  9995
2 66324  42.9980  12.6093 0002905 248.4390 111.6152 15.27597565 15906
STARLINK-35504          
1 66325U 25253G   26040.26954507  .00026107  00000+0  95424-3 0  9991
2 66325  42.9981  13.3865 0001663 251.2595 108.8076 15.27601770 15897
STARLINK-35479          
1 66326U 25253H   26040.31051265  .00023746  00000+0  86917-3 0  9990
2 66326  43.0044  12.8305 0001456 250.9222 109.1472 15.27598203 15908
STARLINK-35507          
1 66327U 25253J   26041.00792439  .00022677  00000+0  83055-3 0  9995
2 66327  43.0002   8.6020 0001010 206.6543 153.4257 15.27599879 16016
STARLINK-35460          
1 66328U 25253K   26040.00028871  .00037123  00000+0  13508-2 0  9994
2 66328  42.9992  14.8003 0001243 244.7022 115.3701 15.27604763 15857
STARLINK-35505          
1 66329U 25253L   26040.37206255  .00053599  00000+0  19401-2 0  9992
2 66329  43.0051  12.4353 0002689 270.4757  89.5787 15.27629441 15917
